OBJECT_NAME,OBJECT_ID,EPOCH,MEAN_MOTION,ECCENTRICITY,INCLINATION,RA_OF_ASC_NODE,ARG_OF_PERICENTER,MEAN_ANOMALY,EPHEMERIS_TYPE,CLASSIFICATION_TYPE,NORAD_CAT_ID,ELEMENT_SET_NO,REV_AT_EPOCH,BSTAR,MEAN_MOTION_DOT,MEAN_MOTION_DDOT
INTELSAT 23 (IS-23),2012-057A,2026-07-13T20:03:18.630720,1.00273836,.0000336,0.0145,25.1619,168.0285,346.3501,0,U,38867,999,5022,0,-.29E-5,0
BEIDOU-2 G6,2012-059A,2026-07-13T21:04:26.226912,1.00274053,.0008795,4.4857,73.2282,327.1171,291.4854,0,U,38953,999,5017,0,-.185E-5,0
LUCH-5B,2012-061A,2026-07-13T20:13:53.013216,1.00270493,.0003859,10.5383,49.6107,146.1874,23.1186,0,U,38977,999,4987,0,-.149E-5,0
YAMAL 300K,2012-061B,2026-07-13T21:10:40.873728,1.00268308,.0000556,0.0185,63.0442,194.4527,174.8918,0,U,38978,999,4989,0,0,0
STAR ONE C3,2012-062A,2026-07-13T19:57:04.231008,1.00267059,.0002328,0.0239,44.5189,85.0121,26.4532,0,U,38991,999,5003,0,0,0
EUTELSAT 21B,2012-062B,2026-07-13T19:46:38.790048,1.00269680,.0003237,0.0661,10.6684,108.3651,130.8892,0,U,38992,999,5009,0,.124E-5,0
ECHOSTAR 16,2012-065A,2026-07-13T20:00:56.360160,1.00269959,.0002077,0.0192,61.0187,47.2450,62.1785,0,U,39008,999,4991,0,-.287E-5,0
ZHONGXING-12,2012-067A,2026-07-13T20:43:15.650112,1.00271721,.0002594,0.0308,96.0773,17.3576,216.6073,0,U,39017,999,4977,0,-.212E-5,0
EUTELSAT 70B,2012-069A,2026-07-13T21:00:37.975392,1.00271266,.0003657,0.0608,357.7471,114.1978,205.4509,0,U,39020,999,4977,0,-.48E-6,0
YAMAL 402,2012-070A,2026-07-13T13:43:29.343360,1.00270742,.000353,1.3301,83.8289,25.3483,83.0293,0,U,39022,999,4966,0,.81E-6,0
SKYNET 5D,2012-075A,2026-07-13T20:33:31.581792,1.00269514,.0003352,0.0681,354.6478,127.9644,170.2469,0,U,39034,999,4942,0,.95E-6,0
MEXSAT 3,2012-075B,2026-07-13T16:20:24.968256,1.00268859,.0000948,0.0186,42.7674,64.3191,314.8015,0,U,39035,999,731,0,0,0
TDRS 11,2013-004A,2026-07-13T19:28:44.445792,1.00278927,.0004591,3.5595,31.6768,31.1456,346.8609,0,U,39070,999,4696,0,.74E-6,0
AMAZONAS 3,2013-006A,2026-07-13T20:01:03.846720,1.00270718,.000325,0.0098,246.7748,265.9302,18.2713,0,U,39078,999,4518,0,0,0
AZERSPACE 1,2013-006B,2026-07-13T20:31:39.261792,1.00269421,.0001674,0.0162,357.8109,150.5957,137.2178,0,U,39079,999,4907,0,.128E-5,0
SBIRS GEO-2 (USA 241),2013-011A,2026-07-13T13:13:39.703008,1.00271570,.0002027,4.5446,52.5092,53.2203,334.3100,0,U,39120,999,4880,0,-.294E-5,0
EUTELSAT 117 WEST A,2013-012A,2026-07-13T14:37:10.858944,1.00271578,.0002615,0.0194,48.3280,70.5133,275.1272,0,U,39122,999,4869,0,-.17E-6,0
ANIK G1,2013-014A,2026-07-13T14:39:55.596096,1.00271227,.0001617,0.0470,254.2965,230.8759,278.9852,0,U,39127,999,4851,0,-.78E-6,0
ZHONGXING-11,2013-020A,2026-07-13T20:36:21.835584,1.00269281,.0002022,0.0320,51.1629,34.9109,252.6415,0,U,39157,999,4816,0,-.295E-5,0
EUTELSAT 7B,2013-022A,2026-07-13T20:20:29.876928,1.00272820,.0003563,0.0715,334.9009,70.7761,198.1700,0,U,39163,999,4821,0,.43E-6,0
WGS F5 (USA 243),2013-024A,2026-07-13T20:03:26.119008,1.00268858,.0000331,0.0257,55.6699,197.0188,287.3830,0,U,39168,999,4744,0,0,0
SES-6,2013-026A,2026-07-13T20:06:55.785024,1.00264955,.0002141,0.0272,324.6493,148.6357,79.6458,0,U,39172,999,4799,0,-.267E-5,0
IRNSS-1A,2013-034A,2026-07-10T17:17:25.712736,1.00281941,.0017567,35.7704,63.5328,183.4462,356.2994,0,U,39199,999,4760,0,.47E-6,0
MUOS-2,2013-036A,2026-07-13T19:24:52.318368,1.00272161,.0052589,5.0467,45.5543,176.3728,172.9203,0,U,39206,999,4745,0,-.21E-6,0
ALPHASAT,2013-038A,2026-07-13T20:25:15.332160,1.00272245,.0002257,2.9991,1.1570,139.0851,122.6642,0,U,39215,999,4428,0,.128E-5,0
INSAT-3D,2013-038B,2026-07-13T20:55:27.331968,1.00269044,.0000507,1.9926,82.2017,85.6144,207.2989,0,U,39216,999,4734,0,-.346E-5,0
WGS F6 (USA 244),2013-041A,2026-07-13T17:57:11.233152,1.00269326,.0000476,0.0181,33.0657,201.8017,190.8606,0,U,39222,999,4632,0,.84E-6,0
ES'HAIL 1,2013-044A,2026-07-13T19:46:38.790048,1.00274229,.0002148,0.0511,340.7872,135.9939,137.1085,0,U,39233,999,4689,0,.138E-5,0
GSAT-7,2013-044B,2026-07-13T21:00:56.564352,1.00271184,.000324,0.1473,89.6718,176.8240,54.4355,0,U,39234,999,4552,0,-.82E-6,0
AMOS-4,2013-045A,2026-07-13T20:37:01.246944,1.00270399,.0002239,0.0349,256.1390,186.4694,223.3786,0,U,39237,999,4722,0,.2E-7,0
AEHF-3 (USA 246),2013-050A,2026-07-13T16:59:44.808000,1.00270676,.0088414,5.3571,66.9410,187.6891,167.6134,0,U,39256,999,4591,0,.2E-6,0
ASTRA 2E,2013-056A,2026-07-13T20:42:38.746080,1.00268429,.0002704,0.0788,311.4811,154.6548,164.7501,0,U,39285,999,4668,0,.145E-5,0
