INTELSAT 23 (IS-23)     
1 38867U 12057A   26194.83563230 -.00000290  00000+0  00000+0 0  9999
2 38867   0.0145  25.1619 0000336 168.0285 346.3501  1.00273836 50221
BEIDOU-2 G6             
1 38953U 12059A   26194.87808133 -.00000185  00000+0  00000+0 0  9998
2 38953   4.4857  73.2282 0008795 327.1171 291.4854  1.00274053 50171
LUCH-5B                 
1 38977U 12061A   26194.84297469 -.00000149  00000+0  00000+0 0  9998
2 38977  10.5383  49.6107 0003859 146.1874  23.1186  1.00270493 49874
YAMAL 300K              
1 38978U 12061B   26194.88241752  .00000000  00000+0  00000+0 0  9992
2 38978   0.0185  63.0442 0000556 194.4527 174.8918  1.00268308 49894
STAR ONE C3             
1 38991U 12062A   26194.83129897  .00000000  00000+0  00000+0 0  9998
2 38991   0.0239  44.5189 0002328  85.0121  26.4532  1.00267059 50039
EUTELSAT 21B            
1 38992U 12062B   26194.82406007  .00000124  00000+0  00000+0 0  9996
2 38992   0.0661  10.6684 0003237 108.3651 130.8892  1.00269680 50097
ECHOSTAR 16             
1 39008U 12065A   26194.83398565 -.00000287  00000+0  00000+0 0  9999
2 39008   0.0192  61.0187 0002077  47.2450  62.1785  1.00269959 49918
ZHONGXING-12            
1 39017U 12067A   26194.86337558 -.00000212  00000+0  00000+0 0  9997
2 39017   0.0308  96.0773 0002594  17.3576 216.6073  1.00271721 49777
EUTELSAT 70B            
1 39020U 12069A   26194.87543953 -.00000048  00000+0  00000+0 0  9999
2 39020   0.0608 357.7471 0003657 114.1978 205.4509  1.00271266 49773
YAMAL 402               
1 39022U 12070A   26194.57186740  .00000081  00000+0  00000+0 0  9993
2 39022   1.3301  83.8289 0003530  25.3483  83.0293  1.00270742 49663
SKYNET 5D               
1 39034U 12075A   26194.85661553  .00000095  00000+0  00000+0 0  9997
2 39034   0.0681 354.6478 0003352 127.9644 170.2469  1.00269514 49425
MEXSAT 3                
1 39035U 12075B   26194.68084454  .00000000  00000+0  00000+0 0  9994
2 39035   0.0186  42.7674 0000948  64.3191 314.8015  1.00268859  7314
TDRS 11                 
1 39070U 13004A   26194.81162553  .00000074  00000+0  00000+0 0  9999
2 39070   3.5595  31.6768 0004591  31.1456 346.8609  1.00278927 46965
AMAZONAS 3              
1 39078U 13006A   26194.83407230  .00000000  00000+0  00000+0 0  9994
2 39078   0.0098 246.7748 0003250 265.9302  18.2713  1.00270718 45187
AZERSPACE 1             
1 39079U 13006B   26194.85531553  .00000128  00000+0  00000+0 0  9994
2 39079   0.0162 357.8109 0001674 150.5957 137.2178  1.00269421 49076
SBIRS GEO-2 (USA 241)   
1 39120U 13011A   26194.55115397 -.00000294  00000+0  00000+0 0  9993
2 39120   4.5446  52.5092 0002027  53.2203 334.3100  1.00271570 48806
EUTELSAT 117 WEST A     
1 39122U 13012A   26194.60915346 -.00000017  00000+0  00000+0 0  9997
2 39122   0.0194  48.3280 0002615  70.5133 275.1272  1.00271578 48695
ANIK G1                 
1 39127U 13014A   26194.61106014 -.00000078  00000+0  00000+0 0  9996
2 39127   0.0470 254.2965 0001617 230.8759 278.9852  1.00271227 48518
ZHONGXING-11            
1 39157U 13020A   26194.85858606 -.00000295  00000+0  00000+0 0  9994
2 39157   0.0320  51.1629 0002022  34.9109 252.6415  1.00269281 48161
EUTELSAT 7B             
1 39163U 13022A   26194.84756802  .00000043  00000+0  00000+0 0  9997
2 39163   0.0715 334.9009 0003563  70.7761 198.1700  1.00272820 48213
WGS F5 (USA 243)        
1 39168U 13024A   26194.83571897  .00000000  00000+0  00000+0 0  9995
2 39168   0.0257  55.6699 0000331 197.0188 287.3830  1.00268858 47442
SES-6                   
1 39172U 13026A   26194.83814566 -.00000267  00000+0  00000+0 0  9991
2 39172   0.0272 324.6493 0002141 148.6357  79.6458  1.00264955 47998
IRNSS-1A                
1 39199U 13034A   26191.72043649  .00000047  00000+0  00000+0 0  9995
2 39199  35.7704  63.5328 0017567 183.4462 356.2994  1.00281941 47601
MUOS-2                  
1 39206U 13036A   26194.80893887 -.00000021  00000+0  00000+0 0  9998
2 39206   5.0467  45.5543 0052589 176.3728 172.9203  1.00272161 47457
ALPHASAT                
1 39215U 13038A   26194.85087190  .00000128  00000+0  00000+0 0  9994
2 39215   2.9991   1.1570 0002257 139.0851 122.6642  1.00272245 44283
INSAT-3D                
1 39216U 13038B   26194.87184412 -.00000346  00000+0  00000+0 0  9995
2 39216   1.9926  82.2017 0000507  85.6144 207.2989  1.00269044 47341
WGS F6 (USA 244)        
1 39222U 13041A   26194.74804668  .00000084  00000+0  00000+0 0  9992
2 39222   0.0181  33.0657 0000476 201.8017 190.8606  1.00269326 46324
ES'HAIL 1               
1 39233U 13044A   26194.82406007  .00000138  00000+0  00000+0 0  9991
2 39233   0.0511 340.7872 0002148 135.9939 137.1085  1.00274229 46893
GSAT-7                  
1 39234U 13044B   26194.87565468 -.00000082  00000+0  00000+0 0  9993
2 39234   0.1473  89.6718 0003240 176.8240  54.4355  1.00271184 45520
AMOS-4                  
1 39237U 13045A   26194.85904221  .00000002  00000+0  00000+0 0  9990
2 39237   0.0349 256.1390 0002239 186.4694 223.3786  1.00270399 47229
AEHF-3 (USA 246)        
1 39256U 13050A   26194.70815750  .00000020  00000+0  00000+0 0  9999
2 39256   5.3571  66.9410 0088414 187.6891 167.6134  1.00270676 45915
ASTRA 2E                
1 39285U 13056A   26194.86294845  .00000145  00000+0  00000+0 0  9998
2 39285   0.0788 311.4811 0002704 154.6548 164.7501  1.00268429 46687
